{
    "links": {
        "self": "http://www.neowsapp.com/rest/v1/neo/3402364?api_key=iIulBulltgU6a56xZRHN4H3l9WmuAYTsLGpBGhQ2"
    },
    "id": "3402364",
    "neo_reference_id": "3402364",
    "name": "(2008 CC71)",
    "designation": "2008 CC71",
    "nasa_jpl_url": "http://ssd.jpl.nasa.gov/sbdb.cgi?sstr=3402364",
    "absolute_magnitude_h": 24.9,
    "estimated_diameter": {
        "kilometers": {
            "estimated_diameter_min": 0.0278326768,
            "estimated_diameter_max": 0.0622357573
        },
        "meters": {
            "estimated_diameter_min": 27.8326768072,
            "estimated_diameter_max": 62.2357573367
        },
        "miles": {
            "estimated_diameter_min": 0.0172944182,
            "estimated_diameter_max": 0.0386714948
        },
        "feet": {
            "estimated_diameter_min": 91.3145593761,
            "estimated_diameter_max": 204.1855621004
        }
    },
    "is_potentially_hazardous_asteroid": false,
    "close_approach_data": [
        {
            "close_approach_date": "2008-02-22",
            "close_approach_date_full": "2008-Feb-22 12:04",
            "epoch_date_close_approach": 1203681840000,
            "relative_velocity": {
                "kilometers_per_second": "9.1787865464",
                "kilometers_per_hour": "33043.6315670512",
                "miles_per_hour": "20532.0276256491"
            },
            "miss_distance": {
                "astronomical": "0.0366019736",
                "lunar": "14.2381677304",
                "kilometers": "5475577.288356232",
                "miles": "3402365.9571787216"
            },
            "orbiting_body": "Earth"
        },
        {
            "close_approach_date": "2008-07-04",
            "close_approach_date_full": "2008-Jul-04 19:42",
            "epoch_date_close_approach": 1215200520000,
            "relative_velocity": {
                "kilometers_per_second": "3.6340028846",
                "kilometers_per_hour": "13082.4103847028",
                "miles_per_hour": "8128.9010526505"
            },
            "miss_distance": {
                "astronomical": "0.4133237489",
                "lunar": "160.7829383221",
                "kilometers": "61832352.455854843",
                "miles": "38420842.2179411134"
            },
            "orbiting_body": "Earth"
        },
        {
            "close_approach_date": "2104-03-06",
            "close_approach_date_full": "2104-Mar-06 01:07",
            "epoch_date_close_approach": 4234208820000,
            "relative_velocity": {
                "kilometers_per_second": "7.2779651433",
                "kilometers_per_hour": "26200.6745158617",
                "miles_per_hour": "16280.0802290364"
            },
            "miss_distance": {
                "astronomical": "0.0283042619",
                "lunar": "11.0103578791",
                "kilometers": "4234257.292162153",
                "miles": "2631045.4781495914"
            },
            "orbiting_body": "Earth"
        }
    ],
    "orbital_data": {
        "orbit_id": "11",
        "orbit_determination_date": "2017-04-06 09:04:24",
        "first_observation_date": "2008-02-09",
        "last_observation_date": "2008-02-19",
        "data_arc_in_days": 10,
        "observations_used": 29,
        "orbit_uncertainty": "8",
        "minimum_orbit_intersection": ".00058669",
        "jupiter_tisserand_invariant": "4.565",
        "epoch_osculation": "2454508.5",
        "eccentricity": ".3680061274037855",
        "semi_major_axis": "1.451987766906828",
        "inclination": "1.87131603748596",
        "ascending_node_longitude": "339.2278269311936",
        "orbital_period": "639.0618068905259",
        "perihelion_distance": ".9176473717697754",
        "perihelion_argument": "222.2876542047327",
        "aphelion_distance": "1.98632816204388",
        "perihelion_time": "2454556.566634477446",
        "mean_anomaly": "332.9228249516642",
        "mean_motion": ".5633257943416256",
        "equinox": "J2000",
        "orbit_class": {
            "orbit_class_type": "APO",
            "orbit_class_description": "Near-Earth asteroid orbits which cross the Earth’s orbit similar to that of 1862 Apollo",
            "orbit_class_range": "a (semi-major axis) > 1.0 AU; q (perihelion) < 1.017 AU"
        }
    },
    "is_sentry_object": false
}